ONEWEB-0703             
1 56724U 23068Q   25210.85121735  .00000093  00000+0  21413-3 0  9990
2 56724  87.9071 323.5038 0003021  95.8781 264.2694 13.15547710106875
ONEWEB-0721             
1 56725U 23068R   25210.90421078  .00000029  00000+0  35720-4 0  9996
2 56725  86.6827 188.2258 0002011  84.6519 275.4843 13.22441238115342
ONEWEB-0015             
1 61594U 24188A   25210.87930913  .00000529  00000+0  14572-2 0  9994
2 61594  87.8827  85.3405 0001737 101.2690 258.8633 13.11415215 42217
ONEWEB-0687             
1 61595U 24188B   25210.65392062  .00000049  00000+0  92392-4 0  9993
2 61595  87.9036  70.1099 0001175  95.0212 265.1054 13.17651434 43421
ONEWEB-0688             
1 61596U 24188C   25210.68260192 -.00000034  00000+0 -12048-3 0  9990
2 61596  87.9035  70.1046 0001899 125.0885 235.0425 13.17652506 43425
ONEWEB-0689             
1 61597U 24188D   25211.14209428 -.00000464  00000+0 -13445-2 0  9996
2 61597  87.8777  85.2592 0001400  77.3327 282.7957 13.11417659 40371
ONEWEB-0690             
1 61598U 24188E   25210.69448787 -.00000203  00000+0 -60948-3 0  9991
2 61598  87.8824  85.3104 0002513  78.2589 281.8821 13.11420333 42365
ONEWEB-0691             
1 61599U 24188F   25210.68940428 -.00000350  00000+0 -10244-2 0  9996
2 61599  87.8734  85.3041 0001772  92.7697 267.3633 13.11419369 42214
ONEWEB-0692             
1 61600U 24188G   25211.16754614  .00000338  00000+0  91847-3 0  9996
2 61600  87.8805  85.2884 0001706  48.4281 311.6993 13.11419532 40485
ONEWEB-0693             
1 61601U 24188H   25210.84630679  .00000026  00000+0  33820-4 0  9997
2 61601  87.9037  70.0888 0002594  88.2429 271.9000 13.17648588 43438
ONEWEB-0695             
1 61602U 24188J   25210.68600011 -.00000460  00000+0 -13328-2 0  9990
2 61602  87.8807  85.3704 0001344  63.2436 296.8829 13.11419887 42191
ONEWEB-0697             
1 61603U 24188K   25210.64194368  .00000558  00000+0  15378-2 0  9993
2 61603  87.8793  85.3733 0001825  51.9433 308.1860 13.11416202 42171
ONEWEB-0698             
1 61604U 24188L   25210.69619495 -.00000108  00000+0 -33995-3 0  9991
2 61604  87.8804  85.3748 0002543  58.4323 301.7053 13.11418874 42203
ONEWEB-0699             
1 61605U 24188M   25211.21595741  .00000702  00000+0  19747-2 0  9994
2 61605  87.8802 100.4700 0001923  58.1557 301.9758 13.10376571 39279
ONEWEB-0700             
1 61606U 24188N   25210.75945993  .00000728  00000+0  20479-2 0  9993
2 61606  87.8762 100.4599 0001338  57.0638 303.0618 13.10374802 41073
ONEWEB-0701             
1 61607U 24188P   25210.69970117  .00000197  00000+0  52893-3 0  9999
2 61607  87.8796 100.5811 0001935  50.7432 309.3867 13.10369593 41070
ONEWEB-0702             
1 61608U 24188Q   25211.19975124  .00000211  00000+0  55953-3 0  9996
2 61608  87.8735  85.2307 0001483  46.6071 313.5180 13.11414187 40361
