[{"OBJECT_NAME":"ONEWEB-0703","OBJECT_ID":"2023-068Q","EPOCH":"2025-07-29T20:25:45.179040","MEAN_MOTION":13.1554771,"ECCENTRICITY":0.0003021,"INCLINATION":87.9071,"RA_OF_ASC_NODE":323.5038,"ARG_OF_PERICENTER":95.8781,"MEAN_ANOMALY":264.2694,"EPHEMERIS_TYPE":0,"CLASSIFICATION_TYPE":"U","NORAD_CAT_ID":56724,"ELEMENT_SET_NO":999,"REV_AT_EPOCH":10687,"BSTAR":0.00021413,"MEAN_MOTION_DOT":9.3e-7,"MEAN_MOTION_DDOT":0},{"OBJECT_NAME":"ONEWEB-0721","OBJECT_ID":"2023-068R","EPOCH":"2025-07-29T21:42:03.811392","MEAN_MOTION":13.22441238,"ECCENTRICITY":0.0002011,"INCLINATION":86.6827,"RA_OF_ASC_NODE":188.2258,"ARG_OF_PERICENTER":84.6519,"MEAN_ANOMALY":275.4843,"EPHEMERIS_TYPE":0,"CLASSIFICATION_TYPE":"U","NORAD_CAT_ID":56725,"ELEMENT_SET_NO":999,"REV_AT_EPOCH":11534,"BSTAR":3.572e-5,"MEAN_MOTION_DOT":2.9e-7,"MEAN_MOTION_DDOT":0},{"OBJECT_NAME":"ONEWEB-0015","OBJECT_ID":"2024-188A","EPOCH":"2025-07-29T21:06:12.308832","MEAN_MOTION":13.11415215,"ECCENTRICITY":0.0001737,"INCLINATION":87.8827,"RA_OF_ASC_NODE":85.3405,"ARG_OF_PERICENTER":101.269,"MEAN_ANOMALY":258.8633,"EPHEMERIS_TYPE":0,"CLASSIFICATION_TYPE":"U","NORAD_CAT_ID":61594,"ELEMENT_SET_NO":999,"REV_AT_EPOCH":4221,"BSTAR":0.0014572,"MEAN_MOTION_DOT":5.29e-6,"MEAN_MOTION_DDOT":0},{"OBJECT_NAME":"ONEWEB-0687","OBJECT_ID":"2024-188B","EPOCH":"2025-07-29T15:41:38.741568","MEAN_MOTION":13.17651434,"ECCENTRICITY":0.0001175,"INCLINATION":87.9036,"RA_OF_ASC_NODE":70.1099,"ARG_OF_PERICENTER":95.0212,"MEAN_ANOMALY":265.1054,"EPHEMERIS_TYPE":0,"CLASSIFICATION_TYPE":"U","NORAD_CAT_ID":61595,"ELEMENT_SET_NO":999,"REV_AT_EPOCH":4342,"BSTAR":9.2392e-5,"MEAN_MOTION_DOT":4.9e-7,"MEAN_MOTION_DDOT":0},{"OBJECT_NAME":"ONEWEB-0688","OBJECT_ID":"2024-188C","EPOCH":"2025-07-29T16:22:56.805888","MEAN_MOTION":13.17652506,"ECCENTRICITY":0.0001899,"INCLINATION":87.9035,"RA_OF_ASC_NODE":70.1046,"ARG_OF_PERICENTER":125.0885,"MEAN_ANOMALY":235.0425,"EPHEMERIS_TYPE":0,"CLASSIFICATION_TYPE":"U","NORAD_CAT_ID":61596,"ELEMENT_SET_NO":999,"REV_AT_EPOCH":4342,"BSTAR":-0.00012048,"MEAN_MOTION_DOT":-3.4e-7,"MEAN_MOTION_DDOT":0},{"OBJECT_NAME":"ONEWEB-0689","OBJECT_ID":"2024-188D","EPOCH":"2025-07-30T03:24:36.945792","MEAN_MOTION":13.11417659,"ECCENTRICITY":0.00014,"INCLINATION":87.8777,"RA_OF_ASC_NODE":85.2592,"ARG_OF_PERICENTER":77.3327,"MEAN_ANOMALY":282.7957,"EPHEMERIS_TYPE":0,"CLASSIFICATION_TYPE":"U","NORAD_CAT_ID":61597,"ELEMENT_SET_NO":999,"REV_AT_EPOCH":4037,"BSTAR":-0.0013445,"MEAN_MOTION_DOT":-4.64e-6,"MEAN_MOTION_DDOT":0},{"OBJECT_NAME":"ONEWEB-0690","OBJECT_ID":"2024-188E","EPOCH":"2025-07-29T16:40:03.751968","MEAN_MOTION":13.11420333,"ECCENTRICITY":0.0002513,"INCLINATION":87.8824,"RA_OF_ASC_NODE":85.3104,"ARG_OF_PERICENTER":78.2589,"MEAN_ANOMALY":281.8821,"EPHEMERIS_TYPE":0,"CLASSIFICATION_TYPE":"U","NORAD_CAT_ID":61598,"ELEMENT_SET_NO":999,"REV_AT_EPOCH":4236,"BSTAR":-0.00060948,"MEAN_MOTION_DOT":-2.03e-6,"MEAN_MOTION_DDOT":0},{"OBJECT_NAME":"ONEWEB-0691","OBJECT_ID":"2024-188F","EPOCH":"2025-07-29T16:32:44.529792","MEAN_MOTION":13.11419369,"ECCENTRICITY":0.0001772,"INCLINATION":87.8734,"RA_OF_ASC_NODE":85.3041,"ARG_OF_PERICENTER":92.7697,"MEAN_ANOMALY":267.3633,"EPHEMERIS_TYPE":0,"CLASSIFICATION_TYPE":"U","NORAD_CAT_ID":61599,"ELEMENT_SET_NO":999,"REV_AT_EPOCH":4221,"BSTAR":-0.0010244,"MEAN_MOTION_DOT":-3.5e-6,"MEAN_MOTION_DDOT":0},{"OBJECT_NAME":"ONEWEB-0692","OBJECT_ID":"2024-188G","EPOCH":"2025-07-30T04:01:15.986496","MEAN_MOTION":13.11419532,"ECCENTRICITY":0.0001706,"INCLINATION":87.8805,"RA_OF_ASC_NODE":85.2884,"ARG_OF_PERICENTER":48.4281,"MEAN_ANOMALY":311.6993,"EPHEMERIS_TYPE":0,"CLASSIFICATION_TYPE":"U","NORAD_CAT_ID":61600,"ELEMENT_SET_NO":999,"REV_AT_EPOCH":4048,"BSTAR":0.00091847,"MEAN_MOTION_DOT":3.38e-6,"MEAN_MOTION_DDOT":0},{"OBJECT_NAME":"ONEWEB-0693","OBJECT_ID":"2024-188H","EPOCH":"2025-07-29T20:18:40.906656","MEAN_MOTION":13.17648588,"ECCENTRICITY":0.0002594,"INCLINATION":87.9037,"RA_OF_ASC_NODE":70.0888,"ARG_OF_PERICENTER":88.2429,"MEAN_ANOMALY":271.9,"EPHEMERIS_TYPE":0,"CLASSIFICATION_TYPE":"U","NORAD_CAT_ID":61601,"ELEMENT_SET_NO":999,"REV_AT_EPOCH":4343,"BSTAR":3.382e-5,"MEAN_MOTION_DOT":2.6e-7,"MEAN_MOTION_DDOT":0},{"OBJECT_NAME":"ONEWEB-0695","OBJECT_ID":"2024-188J","EPOCH":"2025-07-29T16:27:50.409504","MEAN_MOTION":13.11419887,"ECCENTRICITY":0.0001344,"INCLINATION":87.8807,"RA_OF_ASC_NODE":85.3704,"ARG_OF_PERICENTER":63.2436,"MEAN_ANOMALY":296.8829,"EPHEMERIS_TYPE":0,"CLASSIFICATION_TYPE":"U","NORAD_CAT_ID":61602,"ELEMENT_SET_NO":999,"REV_AT_EPOCH":4219,"BSTAR":-0.0013328,"MEAN_MOTION_DOT":-4.6e-6,"MEAN_MOTION_DDOT":0},{"OBJECT_NAME":"ONEWEB-0697","OBJECT_ID":"2024-188K","EPOCH":"2025-07-29T15:24:23.933952","MEAN_MOTION":13.11416202,"ECCENTRICITY":0.0001825,"INCLINATION":87.8793,"RA_OF_ASC_NODE":85.3733,"ARG_OF_PERICENTER":51.9433,"MEAN_ANOMALY":308.186,"EPHEMERIS_TYPE":0,"CLASSIFICATION_TYPE":"U","NORAD_CAT_ID":61603,"ELEMENT_SET_NO":999,"REV_AT_EPOCH":4217,"BSTAR":0.0015378,"MEAN_MOTION_DOT":5.58e-6,"MEAN_MOTION_DDOT":0},{"OBJECT_NAME":"ONEWEB-0698","OBJECT_ID":"2024-188L","EPOCH":"2025-07-29T16:42:31.243680","MEAN_MOTION":13.11418874,"ECCENTRICITY":0.0002543,"INCLINATION":87.8804,"RA_OF_ASC_NODE":85.3748,"ARG_OF_PERICENTER":58.4323,"MEAN_ANOMALY":301.7053,"EPHEMERIS_TYPE":0,"CLASSIFICATION_TYPE":"U","NORAD_CAT_ID":61604,"ELEMENT_SET_NO":999,"REV_AT_EPOCH":4220,"BSTAR":-0.00033995,"MEAN_MOTION_DOT":-1.08e-6,"MEAN_MOTION_DDOT":0},{"OBJECT_NAME":"ONEWEB-0699","OBJECT_ID":"2024-188M","EPOCH":"2025-07-30T05:10:58.720224","MEAN_MOTION":13.10376571,"ECCENTRICITY":0.0001923,"INCLINATION":87.8802,"RA_OF_ASC_NODE":100.47,"ARG_OF_PERICENTER":58.1557,"MEAN_ANOMALY":301.9758,"EPHEMERIS_TYPE":0,"CLASSIFICATION_TYPE":"U","NORAD_CAT_ID":61605,"ELEMENT_SET_NO":999,"REV_AT_EPOCH":3927,"BSTAR":0.0019747,"MEAN_MOTION_DOT":7.02e-6,"MEAN_MOTION_DDOT":0},{"OBJECT_NAME":"ONEWEB-0700","OBJECT_ID":"2024-188N","EPOCH":"2025-07-29T18:13:37.337952","MEAN_MOTION":13.10374802,"ECCENTRICITY":0.0001338,"INCLINATION":87.8762,"RA_OF_ASC_NODE":100.4599,"ARG_OF_PERICENTER":57.0638,"MEAN_ANOMALY":303.0618,"EPHEMERIS_TYPE":0,"CLASSIFICATION_TYPE":"U","NORAD_CAT_ID":61606,"ELEMENT_SET_NO":999,"REV_AT_EPOCH":4107,"BSTAR":0.0020479,"MEAN_MOTION_DOT":7.28e-6,"MEAN_MOTION_DDOT":0},{"OBJECT_NAME":"ONEWEB-0701","OBJECT_ID":"2024-188P","EPOCH":"2025-07-29T16:47:34.181088","MEAN_MOTION":13.10369593,"ECCENTRICITY":0.0001935,"INCLINATION":87.8796,"RA_OF_ASC_NODE":100.5811,"ARG_OF_PERICENTER":50.7432,"MEAN_ANOMALY":309.3867,"EPHEMERIS_TYPE":0,"CLASSIFICATION_TYPE":"U","NORAD_CAT_ID":61607,"ELEMENT_SET_NO":999,"REV_AT_EPOCH":4107,"BSTAR":0.00052893,"MEAN_MOTION_DOT":1.97e-6,"MEAN_MOTION_DDOT":0},{"OBJECT_NAME":"ONEWEB-0702","OBJECT_ID":"2024-188Q","EPOCH":"2025-07-30T04:47:38.507136","MEAN_MOTION":13.11414187,"ECCENTRICITY":0.0001483,"INCLINATION":87.8735,"RA_OF_ASC_NODE":85.2307,"ARG_OF_PERICENTER":46.6071,"MEAN_ANOMALY":313.518,"EPHEMERIS_TYPE":0,"CLASSIFICATION_TYPE":"U","NORAD_CAT_ID":61608,"ELEMENT_SET_NO":999,"REV_AT_EPOCH":4036,"BSTAR":0.00055953,"MEAN_MOTION_DOT":2.11e-6,"MEAN_MOTION_DDOT":0}]
